[{"OBJECT_NAME":"STARLINK-3249","OBJECT_ID":"2021-115G","EPOCH":"2026-03-09T11:08:50.396352","MEAN_MOTION":15.08815855,"ECCENTRICITY":0.00015532,"INCLINATION":53.2178,"RA_OF_ASC_NODE":160.3234,"ARG_OF_PERICENTER":118.2346,"MEAN_ANOMALY":241.8804,"EPHEMERIS_TYPE":0,"CLASSIFICATION_TYPE":"U","NORAD_CAT_ID":49730,"ELEMENT_SET_NO":999,"REV_AT_EPOCH":23535,"BSTAR":0.00031227537,"MEAN_MOTION_DOT":4.682e-5,"MEAN_MOTION_DDOT":0},{"OBJECT_NAME":"CZ-6A DEB","OBJECT_ID":"2024-140ABG","EPOCH":"2026-03-09T16:43:29.524800","MEAN_MOTION":15.18896608,"ECCENTRICITY":0.00616087,"INCLINATION":89.2171,"RA_OF_ASC_NODE":295.9508,"ARG_OF_PERICENTER":79.2706,"MEAN_ANOMALY":281.5467,"EPHEMERIS_TYPE":0,"CLASSIFICATION_TYPE":"U","NORAD_CAT_ID":61498,"ELEMENT_SET_NO":999,"REV_AT_EPOCH":8006,"BSTAR":0.0048163661,"MEAN_MOTION_DOT":0.0010689,"MEAN_MOTION_DDOT":0}]
